{
    "links": {
        "self": "http://www.neowsapp.com/rest/v1/neo/54016667?api_key=iIulBulltgU6a56xZRHN4H3l9WmuAYTsLGpBGhQ2"
    },
    "id": "54016667",
    "neo_reference_id": "54016667",
    "name": "(2020 HM3)",
    "designation": "2020 HM3",
    "nasa_jpl_url": "http://ssd.jpl.nasa.gov/sbdb.cgi?sstr=54016667",
    "absolute_magnitude_h": 24.824,
    "estimated_diameter": {
        "kilometers": {
            "estimated_diameter_min": 0.0288240483,
            "estimated_diameter_max": 0.0644525313
        },
        "meters": {
            "estimated_diameter_min": 28.8240482835,
            "estimated_diameter_max": 64.4525313486
        },
        "miles": {
            "estimated_diameter_min": 0.0179104277,
            "estimated_diameter_max": 0.0400489339
        },
        "feet": {
            "estimated_diameter_min": 94.5670905704,
            "estimated_diameter_max": 211.4584429498
        }
    },
    "is_potentially_hazardous_asteroid": false,
    "close_approach_data": [
        {
            "close_approach_date": "2019-04-13",
            "close_approach_date_full": "2019-Apr-13 11:41",
            "epoch_date_close_approach": 1555155660000,
            "relative_velocity": {
                "kilometers_per_second": "22.7832058771",
                "kilometers_per_hour": "82019.5411576122",
                "miles_per_hour": "50963.7532265174"
            },
            "miss_distance": {
                "astronomical": "0.3936481103",
                "lunar": "153.1291149067",
                "kilometers": "58888918.830405061",
                "miles": "36591877.3733134018"
            },
            "orbiting_body": "Earth"
        },
        {
            "close_approach_date": "2020-04-21",
            "close_approach_date_full": "2020-Apr-21 06:25",
            "epoch_date_close_approach": 1587450300000,
            "relative_velocity": {
                "kilometers_per_second": "15.8075287191",
                "kilometers_per_hour": "56907.1033889335",
                "miles_per_hour": "35359.8609918626"
            },
            "miss_distance": {
                "astronomical": "0.0699212958",
                "lunar": "27.1993840662",
                "kilometers": "10460076.919319946",
                "miles": "6499590.4076534148"
            },
            "orbiting_body": "Earth"
        },
        {
            "close_approach_date": "2021-04-16",
            "close_approach_date_full": "2021-Apr-16 18:19",
            "epoch_date_close_approach": 1618597140000,
            "relative_velocity": {
                "kilometers_per_second": "14.6379758433",
                "kilometers_per_hour": "52696.7130359534",
                "miles_per_hour": "32743.6881639234"
            },
            "miss_distance": {
                "astronomical": "0.3569204048",
                "lunar": "138.8420374672",
                "kilometers": "53394532.317617776",
                "miles": "33177823.9060302688"
            },
            "orbiting_body": "Earth"
        },
        {
            "close_approach_date": "2021-10-08",
            "close_approach_date_full": "2021-Oct-08 19:02",
            "epoch_date_close_approach": 1633719720000,
            "relative_velocity": {
                "kilometers_per_second": "15.6179316554",
                "kilometers_per_hour": "56224.5539595682",
                "miles_per_hour": "34935.7513200439"
            },
            "miss_distance": {
                "astronomical": "0.2594287953",
                "lunar": "100.9178013717",
                "kilometers": "38809995.193546011",
                "miles": "24115412.7667205118"
            },
            "orbiting_body": "Earth"
        },
        {
            "close_approach_date": "2022-11-01",
            "close_approach_date_full": "2022-Nov-01 00:37",
            "epoch_date_close_approach": 1667263020000,
            "relative_velocity": {
                "kilometers_per_second": "18.611024389",
                "kilometers_per_hour": "66999.6878005498",
                "miles_per_hour": "41631.0004558472"
            },
            "miss_distance": {
                "astronomical": "0.1532977641",
                "lunar": "59.6328302349",
                "kilometers": "22933018.985122467",
                "miles": "14249917.2199133646"
            },
            "orbiting_body": "Earth"
        }
    ],
    "orbital_data": {
        "orbit_id": "4",
        "orbit_determination_date": "2020-04-27 07:39:02",
        "first_observation_date": "2020-04-20",
        "last_observation_date": "2020-04-27",
        "data_arc_in_days": 7,
        "observations_used": 35,
        "orbit_uncertainty": "8",
        "minimum_orbit_intersection": ".0582607",
        "jupiter_tisserand_invariant": "5.758",
        "epoch_osculation": "2458960.5",
        "eccentricity": ".1971876481865023",
        "semi_major_axis": "1.0426740837255",
        "inclination": "28.98404084401103",
        "ascending_node_longitude": "208.5164748524583",
        "orbital_period": "388.8850926538198",
        "perihelion_distance": ".8370716333306523",
        "perihelion_argument": "111.51707821",
        "aphelion_distance": "1.248276534120347",
        "perihelion_time": "2459053.005237347290",
        "mean_anomaly": "274.3657443442573",
        "mean_motion": ".9257233223914477",
        "equinox": "J2000",
        "orbit_class": {
            "orbit_class_type": "APO",
            "orbit_class_description": "Near-Earth asteroid orbits which cross the Earth’s orbit similar to that of 1862 Apollo",
            "orbit_class_range": "a (semi-major axis) > 1.0 AU; q (perihelion) < 1.017 AU"
        }
    },
    "is_sentry_object": false
}